{
    "links": {
        "self": "http://www.neowsapp.com/rest/v1/neo/3717047?api_key=iIulBulltgU6a56xZRHN4H3l9WmuAYTsLGpBGhQ2"
    },
    "id": "3717047",
    "neo_reference_id": "3717047",
    "name": "(2015 HO10)",
    "designation": "2015 HO10",
    "nasa_jpl_url": "http://ssd.jpl.nasa.gov/sbdb.cgi?sstr=3717047",
    "absolute_magnitude_h": 24.3,
    "estimated_diameter": {
        "kilometers": {
            "estimated_diameter_min": 0.0366906138,
            "estimated_diameter_max": 0.0820427065
        },
        "meters": {
            "estimated_diameter_min": 36.6906137531,
            "estimated_diameter_max": 82.0427064882
        },
        "miles": {
            "estimated_diameter_min": 0.0227984834,
            "estimated_diameter_max": 0.0509789586
        },
        "feet": {
            "estimated_diameter_min": 120.3760332259,
            "estimated_diameter_max": 269.1689931548
        }
    },
    "is_potentially_hazardous_asteroid": false,
    "close_approach_data": [
        {
            "close_approach_date": "2015-04-12",
            "close_approach_date_full": "2015-Apr-12 01:40",
            "epoch_date_close_approach": 1428802800000,
            "relative_velocity": {
                "kilometers_per_second": "6.1003581631",
                "kilometers_per_hour": "21961.2893873053",
                "miles_per_hour": "13645.8911751287"
            },
            "miss_distance": {
                "astronomical": "0.2631454198",
                "lunar": "102.3635683022",
                "kilometers": "39365994.302335826",
                "miles": "24460894.5927173588"
            },
            "orbiting_body": "Earth"
        }
    ],
    "orbital_data": {
        "orbit_id": "3",
        "orbit_determination_date": "2017-04-06 08:34:10",
        "first_observation_date": "2015-04-19",
        "last_observation_date": "2015-04-22",
        "data_arc_in_days": 3,
        "observations_used": 13,
        "orbit_uncertainty": "9",
        "minimum_orbit_intersection": ".263078",
        "jupiter_tisserand_invariant": "3.374",
        "epoch_osculation": "2457133.5",
        "eccentricity": ".4651500957471643",
        "semi_major_axis": "2.365307916561832",
        "inclination": "10.47644449869046",
        "ascending_node_longitude": "19.93209903442393",
        "orbital_period": "1328.709239231825",
        "perihelion_distance": "1.26508471270157",
        "perihelion_argument": "179.6967403038678",
        "aphelion_distance": "3.465531120422094",
        "perihelion_time": "2457122.321207592099",
        "mean_anomaly": "3.028777965878367",
        "mean_motion": ".2709396377857122",
        "equinox": "J2000",
        "orbit_class": {
            "orbit_class_type": "AMO",
            "orbit_class_description": "Near-Earth asteroid orbits similar to that of 1221 Amor",
            "orbit_class_range": "1.017 AU < q (perihelion) < 1.3 AU"
        }
    },
    "is_sentry_object": false
}